{"spkid": "20612326", "covariance": {"epoch": "2458101.5", "labels": ["e", "q", "tp", "node", "peri", "i"], "elements": [{"value": ".579269802488518", "title": "eccentricity", "units": null, "name": "e", "sigma": 5.13911828030796e-08, "label": "e"}, {"name": "q", "sigma": 9.01930008329784e-08, "title": "perihelion distance", "value": ".7480677323174901", "units": "au", "label": "q"}, {"label": "tp", "sigma": 6.01226785846755e-05, "name": "tp", "title": "time of perihelion passage", "value": "2458508.779586251438", "units": "TDB"}, {"sigma": 0.000180034240427331, "name": "om", "units": "deg", "title": "longitude of the ascending node", "value": "127.6862472992447", "label": "node"}, {"title": "argument of perihelion", "value": "141.1960856342903", "units": "deg", "sigma": 0.000183851514201558, "name": "w", "label": "peri"}, {"label": "i", "name": "i", "sigma": 9.8805585909826e-06, "units": "deg", "value": "2.886803090309431", "title": "inclination"}], "data": [["2.641053669899544E-15", "-4.631586812843329E-15", "-1.388510879723881E-12", "6.203304019706794E-13", "-8.530236651673338E-13", "-9.242111959820064E-15"], ["-4.631586812843329E-15", "8.134777399257638E-15", "2.332850571473652E-12", "-1.047480556043071E-12", "1.41887278327871E-12", "1.464579862727733E-14"], ["-1.388510879723881E-12", "2.332850571473652E-12", "3.614736480196194E-9", "-1.654888874900681E-9", "2.809618742561515E-9", "5.845298230191407E-11"], ["6.203304019706794E-13", "-1.047480556043071E-12", "-1.654888874900681E-9", "3.241232772624615E-8", "-3.290038830523481E-8", "1.343653918042577E-9"], ["-8.530236651673338E-13", "1.41887278327871E-12", "2.809618742561515E-9", "-3.290038830523481E-8", "3.380137927420575E-8", "-1.323006746486449E-9"], ["-9.242111959820064E-15", "1.464579862727733E-14", "5.845298230191407E-11", "1.343653918042577E-9", "-1.323006746486449E-9", "9.762543806984009E-11"]]}, "elements": [{"label": "e", "title": "eccentricity", "value": ".5798898430494837", "units": null, "sigma": "5.1362E-8", "name": "e"}, {"label": "a", "value": "1.777826008780979", "title": "semi-major axis", "units": "au", "sigma": "9.3962E-9", "name": "a"}, {"label": "q", "value": ".7468827635796872", "title": "perihelion distance", "units": "au", "sigma": "9.0087E-8", "name": "q"}, {"value": "2.893310000660704", "title": "inclination; angle with respect to x-y ecliptic plane", "units": "deg", "sigma": "9.9116E-6", "name": "i", "label": "i"}, {"name": "om", "sigma": ".00017912", "units": "deg", "title": "longitude of the ascending node", "value": "127.5463302255693", "label": "node"}, {"sigma": ".00018293", "name": "w", "value": "141.4508803927077", "title": "argument of perihelion", "units": "deg", "label": "peri"}, {"label": "M", "name": "ma", "sigma": "2.0546E-5", "title": "mean anomaly", "value": "38.53359431551013", "units": "deg"}, {"label": "tp", "title": "time of perihelion passage", "value": "2461107.823562719199", "units": "TDB", "name": "tp", "sigma": "4.9705E-5"}, {"title": "sidereal orbital period", "value": "865.829363020498", "units": "d", "sigma": "6.8642E-6", "name": "per", "label": "period"}, {"label": "n", "sigma": "3.2963E-9", "name": "n", "value": ".4157863146892111", "title": "mean motion", "units": "deg/d"}, {"units": "au", "value": "2.808769253982271", "title": "aphelion distance", "name": "ad", "sigma": "1.4845E-8", "label": "Q"}], "epoch": "2461200.5"}